C/2022 A3 (Lemmon-ATLAS),e,88.3616,325.4491,234.8957,972.9707,0.0000325,0.99619188,0.0000,09/29.1365/2023,2000,g  8.0,4.0
# From MPEC 2026-E44
P/2022 BV9 (Lemmon),e,11.9214,337.3021,16.2548,4.367218,0.1079933,0.23320138,214.9599,04/03.0/2026,2000,g  9.5,4.0
# From MPEC 2026-E44
P/2022 C1 (PANSTARRS),e,4.7635,113.0947,9.5328,7.238785,0.0506064,0.44920815,81.4217,04/03.0/2026,2000,g 12.0,4.0
# From MPEC 2026-E44
P/2022 C2 (PANSTARRS),e,9.9815,135.2474,89.1304,6.032558,0.0665199,0.44237942,88.8440,04/03.0/2026,2000,g 12.5,4.0
# From MPEC 2026-E44
P/2022 C3 (PANSTARRS),e,12.8244,139.0398,93.7847,9.615885,0.0330537,0.54567469,45.3717,04/03.0/2026,2000,g 11.5,4.0
# From MPEC 2026-E44
P/2022 D1 (PANSTARRS),e,44.0531,47.9290,88.6933,7.407743,0.0488850,0.54818275,82.0147,04/03.0/2026,2000,g 12.5,4.0
# From MPEC 2022-L66
P/2022 E1 (Christensen),e,19.0071,113.3399,114.8186,3.777569,0.1342411,0.22061593,187.1902,04/03.0/2026,2000,g 13.5,4.0
# From MPEC 2026-FC3
C/2022 E2 (ATLAS),h,09/14.2850/2024,137.1411,125.3959,41.7793,1.000627,3.667605,2000,5.0,4.0
# From MPEC 2026-E44
C/2022 E3 (ZTF),h,01/12.3309/2023,109.1814,302.4872,145.8642,1.000029,1.116440,2000,7.5,4.0
# From MPEC 2026-E44
C/2022 F1 (ATLAS),e,57.9816,350.6365,278.4005,91454,0.0000000,0.99993460,0.0000,08/06.3205/2022,2000,g  7.0,4.0
# From MPEC 2026-E44
C/2022 H1 (PANSTARRS),e,49.8644,6.3068,246.2896,860.1136,0.0000391,0.99106121,0.0000,01/18.4683/2024,2000,g  6.0,4.0
# From MPEC 2026-E44
C/2022 JK5 (PANSTARRS),e,16.8267,59.6525,247.3608,43.48959,0.0034366,0.93801349,3.6787,04/03.0/2026,2000,g 11.0,4.0
# From MPEC 2026-E44
C/2022 L2 (ATLAS),h,03/11.9592/2024,129.3093,39.2537,199.9260,1.000339,2.694245,2000,6.5,4.0
# From MPEC 2026-FR0
C/2022 N2 (PANSTARRS),h,08/01.0242/2025,5.5031,319.7320,75.4431,1.003827,3.825966,2000,6.0,4.0
# From MPEC 2026-E44
C/2022 O1 (ATLAS),h,02/14.7681/2022,71.0695,49.9039,268.9306,1.000430,7.435262,2000,6.0,4.0
# From MPEC 2026-FC5
P/2022 P2 (ZTF),e,12.4417,291.1670,137.8131,4.493334,0.1034787,0.55769079,140.9477,04/03.0/2026,2000,g 12.5,4.0
# From MPEC 2026-FR0
C/2022 QE78 (ATLAS),e,36.6581,119.8917,0.6574,1972,0.0000113,0.99722316,0.0000,09/12.2166/2025,2000,g  5.0,4.0
# From MPEC 2026-E44
P/2022 R1 (PANSTARRS),e,7.3895,175.5862,221.6242,7.119000,0.0518890,0.49980292,47.3939,04/03.0/2026,2000,g 11.5,4.0
# From MPEC 2026-E44
C/2022 R3 (Leonard),h,03/05.9673/2023,43.0600,8.2682,72.9591,1.001475,5.134580,2000,9.0,4.0
# From MPEC 2026-E44
P/2022 R5 (PANSTARRS),e,15.2924,115.0392,240.4784,3.070803,0.1831581,0.19449455,257.9786,04/03.0/2026,2000,g 16.0,4.0
# From MPEC 2026-FR0
C/2022 R6 (PANSTARRS),h,08/27.0079/2025,57.0305,150.7776,319.9873,1.005055,6.566060,2000,5.0,4.0
# From MPEC 2026-E44
P/2022 S1 (PANSTARRS),e,34.5622,136.0849,262.8580,6.408217,0.0607573,0.50723761,80.4139,04/03.0/2026,2000,g 13.0,4.0
# From MPEC 2026-E44
C/2022 S4 (Lemmon),e,101.2002,220.1792,268.5577,1437,0.0000181,0.99807797,0.0000,07/18.7939/2024,2000,g  8.0,4.0
# From MPEC 2026-E44
C/2022 T1 (Lemmon),h,02/17.5306/2024,22.5383,236.9033,324.2969,1.000630,3.443508,2000,9.0,4.0
# From MPEC 2026-E44
C/2022 U1 (Leonard),h,03/26.2161/2024,128.1416,72.5323,78.6181,1.000652,4.201895,2000,8.5,4.0
# From MPEC 2026-E44
C/2022 U3 (Bok),e,33.6612,272.7865,189.1549,11798,0.0000008,0.99959077,0.0000,07/28.6878/2024,2000,g  7.5,4.0
# From MPEC 2026-E44
C/2022 U4 (Bok),e,52.0600,132.9183,88.9656,3136,0.0000056,0.99907671,0.0000,08/03.7461/2023,2000,g 10.5,4.0
# From MPEC 2026-E44
C/2022 V2 (Lemmon),e,98.9087,332.8330,168.9763,36.66169,0.0044400,0.94365764,3.9215,04/03.0/2026,2000,g 12.0,4.0
# From MPEC 2026-E44
P/2022 W1 (Rankin),e,13.4611,38.8417,17.9651,6.977620,0.0534741,0.51617340,69.2554,04/03.0/2026,2000,g 12.5,4.0
# From MPEC 2026-E44
C/2022 W2 (ATLAS),e,63.4914,320.4221,123.3511,340.8625,0.0001566,0.99082561,0.0000,03/08.5980/2023,2000,g 11.5,4.0
# From MPEC 2026-E43
C/2023 A3 (Tsuchinshan-ATLAS),h,09/27.7777/2024,139.1061,21.6285,308.5546,1.000165,0.391554,2000,6.5,3.2
# From MPEC 2026-E44
P/2023 B1 (PANSTARRS),e,14.5869,78.5642,81.9215,7.071138,0.0524168,0.13140891,55.6607,04/03.0/2026,2000,g  5.5,4.0
# From MPEC 2026-E44
P/2023 B3 (PANSTARRS),e,9.1557,153.9711,240.3965,4.552285,0.1014752,0.12188552,206.6185,04/03.0/2026,2000,g 10.5,4.0
# From MPEC 2026-FC3
C/2023 C2 (ATLAS),e,48.3224,301.0064,357.4231,1733,0.0000137,0.99863353,0.0000,11/16.6926/2024,2000,g  7.0,4.0
# From MPEC 2026-FR0
C/2023 F3 (ATLAS),h,02/02.7082/2025,145.9629,109.4681,265.5513,1.002852,5.191407,2000,6.0,4.0
# From MPC191587
C/2023 H1 (PANSTARRS),e,21.7830,292.6465,333.7276,742.7805,0.0000487,0.99401329,0.0000,11/28.4951/2024,2000,g  8.5,4.0
# From MPEC 2026-E44
C/2023 H3 (PANSTARRS),e,2.4883,55.0787,193.2359,13.61575,0.0196174,0.61587703,15.2033,04/03.0/2026,2000,g 10.0,4.0
# From MPEC 2026-FR0
C/2023 H5 (Lemmon),h,06/30.4127/2025,97.8547,159.4732,60.1199,1.000544,4.312842,2000,7.0,4.0
# From MPEC 2026-E44
P/2023 JN16 (Lemmon),e,3.7018,11.7866,353.5126,2.697965,0.2224075,0.14770849,101.6975,04/03.0/2026,2000,g 14.0,4.0
# From MPEC 2026-E44
P/2023 M1 (PANSTARRS),e,12.2918,216.8646,79.6941,6.838707,0.0551116,0.58666093,46.3425,04/03.0/2026,2000,g 13.5,4.0
# From MPEC 2026-E44
P/2023 M2 (PANSTARRS),e,19.7141,83.2574,243.7424,5.588499,0.0746039,0.36918179,73.1110,04/03.0/2026,2000,g 12.5,4.0
# From MPEC 2026-E44
P/2023 M4 (ATLAS),e,7.5919,296.2714,320.3887,5.442646,0.0776227,0.27911623,112.6414,04/03.0/2026,2000,g  7.5,4.0
# From MPEC 2026-E44
C/2023 P1 (Nishimura),e,132.4831,66.7865,116.1921,55.94278,0.0023555,0.99599898,0.0000,09/17.5139/2023,2000,g 10.0,4.0
# From MPEC 2026-E44
C/2023 Q1 (PANSTARRS),h,12/01.0944/2024,36.6433,7.1242,84.4262,1.004762,2.576315,2000,10.0,4.0
# From MPEC 2026-E44
C/2023 Q2 (PANSTARRS),e,104.0616,92.6778,171.6562,329.9887,0.0001644,0.99027862,0.0000,06/23.7994/2024,2000,g 11.5,4.0
# From MPEC 2026-FR0
C/2023 R1 (PANSTARRS),h,04/13.3887/2026,149.3151,62.5690,144.2616,1.002397,3.570070,2000,6.0,4.0
# From MPEC 2026-E44
C/2023 R2 (PANSTARRS),h,08/12.2210/2024,30.6960,188.8634,337.3403,1.000370,0.904830,2000,10.5,4.0
# From MPEC 2026-E44
C/2023 RN3 (ATLAS),e,10.3515,207.0644,130.6265,10.16003,0.0304342,0.48985731,35.5748,04/03.0/2026,2000,g  7.5,4.0
# From MPEC 2026-EC7
C/2023 RS61 (PANSTARRS),e,19.9467,347.0340,119.5282,11.89529,0.0240238,0.32797658,336.5654,04/03.0/2026,2000,g  6.8,4.0
# From MPEC 2026-E44
P/2023 S1 (PANSTARRS),e,9.1575,317.2864,180.3560,3.844850,0.1307329,0.31852236,52.6412,04/03.0/2026,2000,g 11.5,4.0
# From MPEC 2026-E44
P/2023 T1 (PANSTARRS),e,6.6121,249.5791,202.9107,4.226727,0.1134221,0.33309660,77.1323,04/03.0/2026,2000,g 14.0,4.0
# From MPEC 2026-E44
C/2023 T3 (Fuls),e,27.2181,246.0020,302.8558,973.4247,0.0000325,0.99635477,0.0000,01/25.4353/2025,2000,g  8.5,4.0
# From MPEC 2026-E44
C/2023 TD22 (Lemmon),e,170.4882,5.5787,32.5336,48.33256,0.0029332,0.95125933,1.6534,04/03.0/2026,2000,g 12.5,4.0
# From MPC191587
C/2023 U1 (Fuls),e,108.1481,305.7996,255.6683,4001,0.0000039,0.99875691,0.0000,10/13.1769/2024,2000,g  8.0,4.0
# From MPEC 2026-FR0
C/2023 V1 (Lemmon),h,07/13.0700/2025,102.0086,15.0524,103.3209,1.000377,5.092637,2000,8.5,4.0
# From MPEC 2026-FC5
P/2023 V2 (PANSTARRS),e,9.8883,95.4728,330.5147,7.215573,0.0508508,0.56969459,40.1493,04/03.0/2026,2000,g 13.5,4.0
# From MPEC 2026-E44
C/2023 V3 (PANSTARRS),e,40.6311,91.2679,291.8105,12.69665,0.0217856,0.64580773,21.2636,04/03.0/2026,2000,g 11.5,4.0
# From MPEC 2026-E44
C/2023 V4 (Camarasa-Duszanowicz),h,05/30.4508/2024,67.1068,66.3264,50.8833,1.001296,1.122118,2000,12.0,4.0
# From MPEC 2026-E44
P/2023 V6 (PANSTARRS),e,3.9816,189.4131,191.5009,5.275108,0.0813499,0.17534927,99.9204,04/03.0/2026,2000,g 11.5,4.0
# From MPEC 2026-E44
C/2023 X1 (Leonard),e,110.5940,136.9644,321.4874,155.3953,0.0005088,0.99387052,0.0000,10/17.8213/2023,2000,g 13.5,3.2
# From MPEC 2026-FR0
C/2023 X2 (Lemmon),h,12/28.4796/2025,76.9807,66.3015,64.8021,1.000082,5.088589,2000,8.5,3.2
# From MPEC 2026-E44
P/2023 X3 (PANSTARRS),e,4.4829,62.0180,40.9370,4.247301,0.1125990,0.28611564,80.0131,04/03.0/2026,2000,g 15.5,4.0
# From MPEC 2026-E44
C/2023 X4 (Hogan),e,11.5907,28.7703,100.6372,9.931962,0.0314885,0.63152737,21.3396,04/03.0/2026,2000,g 12.0,4.0
# From MPEC 2026-E44
C/2023 X7 (PANSTARRS),e,69.1275,119.2056,354.3892,5103,0.0000027,0.99905537,0.0000,05/14.9903/2025,2000,g  9.0,4.0
# From MPEC 2026-E44
P/2023 Y2 (Gibbs),e,6.9918,79.2309,16.9484,3.748501,0.1358056,0.39213194,131.2969,04/03.0/2026,2000,g 15.5,4.0
# From MPEC 2026-FR0
C/2024 A1 (ATLAS),e,94.5054,112.1402,353.1978,33414,0.0000002,0.99988405,0.0000,06/12.9850/2025,2000,g  7.0,4.0
# From MPEC 2026-E44
C/2024 A2 (ATLAS),e,119.1172,78.1697,295.5000,32.14082,0.0054090,0.94150205,3.8098,04/03.0/2026,2000,g 12.5,4.0
# From MPEC 2026-E44
C/2024 B1 (Lemmon),h,10/07.7789/2024,70.8951,79.1884,66.2277,1.001223,1.633883,2000,13.0,4.0
# From MPEC 2026-E44
C/2024 B2 (Lemmon),e,99.8729,294.3879,130.3174,1222,0.0000231,0.99666209,0.0000,10/05.3160/2023,2000,g 11.5,4.0
# From MPEC 2026-E44
C/2024 C1 (PANSTARRS),e,14.2260,83.8115,94.5148,10.59648,0.0285734,0.58352375,16.5627,04/03.0/2026,2000,g 11.5,4.0
# From MPEC 2026-E44
C/2024 C2 (PANSTARRS),e,27.2837,66.4547,87.6354,16.25099,0.0150447,0.44668070,5.8093,04/03.0/2026,2000,g  6.0,4.0
# From MPEC 2026-E44
C/2024 C3 (PANSTARRS),e,22.4480,359.6973,159.7655,11.68238,0.0246835,0.42526599,21.6014,04/03.0/2026,2000,g  9.0,4.0
# From MPEC 2026-E43
C/2024 D1 (Lemmon),e,132.4479,179.6533,125.8002,22191,0.0000003,0.99969846,0.0000,12/03.6156/2027,2000,g  7.3,4.0
# From MPEC 2026-FC3
C/2024 E1 (Wierzchos),h,01/20.7706/2026,75.2397,108.0799,243.6242,1.000217,0.566140,2000,7.0,4.0
# From MPEC 2026-E44
C/2024 E2 (Bok),e,155.6527,135.6597,358.2079,51.11782,0.0026968,0.84938770,2.4008,04/03.0/2026,2000,g  8.0,4.0
# From MPEC 2026-E44
P/2024 F1 (PANSTARRS),e,7.0068,251.5169,229.5986,3.446352,0.1540510,0.46023321,137.1286,04/03.0/2026,2000,g 16.0,4.0
# From MPEC 2026-FR0
